GAOFEN-11 01            
1 43585U 18063A   26204.32036297  .00022042  00000+0  31479-3 0  9995
2 43585  97.1268 271.1175 0004130 169.8721 190.2618 15.56265145445961
ICESAT-2                
1 43613U 18070A   26204.23439699  .00009200  00000+0  33395-3 0  9998
2 43613  92.0084 300.7207 0004587  40.1977 319.9611 15.28279270437965
HYSIS                   
1 43719U 18096A   26204.27975541  .00000983  00000+0  14128-3 0  9990
2 43719  97.9820 270.7412 0001646  73.8474 286.2918 14.78622328412752
KAZSTSAT                
1 43783U 18099AB  26204.32201105  .00000278  00000+0  26899-4 0  9994
2 43783  97.4302 234.6237 0007211 306.2380  53.8177 14.99961603416721
SAUDISAT 5A             
1 43831U 18102A   26204.24297537  .00005738  00000+0  21005-3 0  9997
2 43831  97.3047 265.1323 0009614  17.3630 342.7937 15.28380771421186
SAUDISAT 5B             
1 43833U 18102C   26204.32143219  .00005374  00000+0  19542-3 0  9994
2 43833  97.3157 268.3445 0010415  18.4349 341.7266 15.28621150421318
GAOFEN-10R              
1 44622U 19066A   26204.31760449  .00001106  00000+0  14254-3 0  9994
2 44622  98.0513 158.1635 0006399  30.7511 329.4076 14.83070792367737
CARTOSAT-3              
1 44804U 19081A   26204.31660662  .00003903  00000+0  18825-3 0  9994
2 44804  97.4285 265.5971 0012192  33.3611 326.8390 15.19224051368956
GAOFEN-12 01            
1 44819U 19082A   26204.30649821  .00000357  00000+0  53283-4 0  9992
2 44819  97.8114 209.7348 0000642  75.9375 284.1909 14.80484419359439
CSG-1                   
1 44873U 19092A   26204.30450323  .00000387  00000+0  55178-4 0  9998
2 44873  97.8900  27.3862 0001466  94.7751 265.3630 14.82161810356820
NEMO-HD                 
1 46277U 20061F   26204.33599134  .00010996  00000+0  23289-3 0  9997
2 46277  97.1900 265.9360 0001129 119.4603 240.6759 15.45270087327567
SENTINEL-6A             
1 46984U 20086A   26204.07848740 -.00000059  00000+0  90394-5 0  9993
2 46984  66.0410  60.5060 0007779 269.6212  90.3912 12.80930280264925
CAS500-1                
1 47932U 21022A   26204.26666722  .00006564  00000+0  30652-3 0  9992
2 47932  97.3853  98.7808 0005916 143.7070 216.4567 15.20137168296243
GAOFEN-12 02            
1 48079U 21026A   26204.25385521  .00000348  00000+0  52594-4 0  9997
2 48079  97.9941 202.2905 0006188 111.5049 248.6823 14.80320646287096
PLEIADES NEO 3          
1 48268U 21034A   26204.24797850  .00001616  00000+0  21197-3 0  9990
2 48268  97.8939 278.4960 0001440 100.5571 259.5804 14.81670310282993
PLEIADES NEO 4          
1 49070U 21073E   26204.28170904  .00000390  00000+0  56115-4 0  9991
2 49070  97.8935 278.5251 0001377  98.6585 261.4784 14.81673231266712
LANDSAT 9               
1 49260U 21088A   26204.17959672  .00000273  00000+0  70741-4 0  9994
2 49260  98.2263 273.9181 0001062  94.8455 265.2865 14.57099648256244
CSG-2                   
1 51444U 22008A   26204.27073631  .00000510  00000+0  70600-4 0  9995
2 51444  97.8905  27.3466 0001533  90.6431 269.4958 14.82150422241932
GAOFEN-12 03            
1 52912U 22069A   26204.28987962  .00000245  00000+0  39071-4 0  9997
2 52912  97.8228  91.2420 0002292  63.4554 296.6893 14.80082856219958
SWOT                    
1 54754U 22173A   26204.28698627  .00000091  00000+0  63251-4 0  9992
2 54754  77.6119 346.5745 0000210  72.3660 287.7514 14.00172808184209
GAOFEN-12 04            
1 57654U 23123A   26204.31120486  .00000890  00000+0  12507-3 0  9991
2 57654  97.9094 121.7865 0003048  32.8982 327.2419 14.79786714157975
PARS 1                  
1 59065U 24039Q   26204.29960412  .00012276  00000+0  24951-3 0  9991
2 59065  97.4847 186.3808 0008686 358.2583   1.8634 15.46424018134221
RESURS-P 4              
1 59371U 24061A   26204.31247316  .00003166  00000+0  10392-3 0  9992
2 59371  97.2758 151.5894 0003192  78.2994 281.8606 15.32315490129299
LEGION 1                
1 59625U 24081A   26204.24713321  .00003532  00000+0  18268-3 0  9999
2 59625  97.5002 281.7219 0007987 236.1302 123.9172 15.16882171123001
LEGION 2                
1 59626U 24081B   26204.21166592  .00003517  00000+0  18190-3 0  9996
2 59626  97.5003 281.7834 0010893 203.1236 156.9508 15.16862777123005
ALOS-4 (DAICHI-4)       
1 60182U 24123A   26204.27446557  .00001315  00000+0  18293-3 0  9998
2 60182  97.9221 300.9323 0001567  98.2061 261.9328 14.79476190111219
LEGION 3                
1 60452U 24146A   26204.24562006  .00003321  00000+0  18501-3 0  9999
2 60452  44.9999 197.2360 0007324  19.1941 340.9212 15.15689150107495
LEGION 4                
1 60453U 24146B   26204.31109233  .00003798  00000+0  20933-3 0  9997
2 60453  45.0020 288.7522 0009608 163.4204 196.6990 15.15725313106356
SENTINEL-2C             
1 60989U 24157A   26204.18655197  .00000072  00000+0  44109-4 0  9997
2 60989  98.5678 278.4566 0001044 108.8360 251.2937 14.30817349 98130
IONOSFERA-M 1           
1 61735U 24199A   26204.27091244  .00000026  00000+0  30991-4 0  9993
2 61735  98.7124  77.0541 0002022  61.6628 298.4754 14.22760275132836
