OBJECT_NAME,OBJECT_ID,EPOCH,MEAN_MOTION,ECCENTRICITY,INCLINATION,RA_OF_ASC_NODE,ARG_OF_PERICENTER,MEAN_ANOMALY,EPHEMERIS_TYPE,CLASSIFICATION_TYPE,NORAD_CAT_ID,ELEMENT_SET_NO,REV_AT_EPOCH,BSTAR,MEAN_MOTION_DOT,MEAN_MOTION_DDOT
GAOFEN-11 01,2018-063A,2026-07-23T07:41:19.360608,15.56265145,.00041302,97.1268,271.1175,169.8721,190.2618,0,U,43585,999,44596,.31479025E-3,.22042E-3,0
ICESAT-2,2018-070A,2026-07-23T05:37:31.899936,15.28279270,.00045873,92.0084,300.7207,40.1977,319.9611,0,U,43613,999,43796,.33394597E-3,.92E-4,0
HYSIS,2018-096A,2026-07-23T06:42:50.867424,14.78622328,.00016463,97.9820,270.7412,73.8474,286.2918,0,U,43719,999,41275,.14128149E-3,.983E-5,0
KAZSTSAT,2018-099AB,2026-07-23T07:43:41.754720,14.99961603,.00072111,97.4302,234.6237,306.2380,53.8177,0,U,43783,999,41672,.26899221E-4,.278E-5,0
SAUDISAT 5A,2018-102A,2026-07-23T05:49:53.071968,15.28380771,.00096148,97.3047,265.1323,17.3630,342.7937,0,U,43831,999,42118,.21004644E-3,.5738E-4,0
SAUDISAT 5B,2018-102C,2026-07-23T07:42:51.741216,15.28621150,.00104155,97.3157,268.3445,18.4349,341.7266,0,U,43833,999,42131,.19542211E-3,.5374E-4,0
GAOFEN-10R,2019-066A,2026-07-23T07:37:21.027936,14.83070792,.00063991,98.0513,158.1635,30.7511,329.4076,0,U,44622,999,36773,.14253849E-3,.1106E-4,0
CARTOSAT-3,2019-081A,2026-07-23T07:35:54.811968,15.19224051,.0012192,97.4285,265.5971,33.3611,326.8390,0,U,44804,999,36895,.18825237E-3,.3903E-4,0
GAOFEN-12 01,2019-082A,2026-07-23T07:21:21.445344,14.80484419,.00006422,97.8114,209.7348,75.9375,284.1909,0,U,44819,999,35943,.53282618E-4,.357E-5,0
CSG-1,2019-092A,2026-07-23T07:18:29.079072,14.82161810,.00014662,97.8900,27.3862,94.7751,265.3630,0,U,44873,999,35682,.55178023E-4,.387E-5,0
NEMO-HD,2020-061F,2026-07-23T08:03:49.651776,15.45270087,.0001129,97.1900,265.9360,119.4603,240.6759,0,U,46277,999,32756,.23289435E-3,.10996E-3,0
SENTINEL-6A,2020-086A,2026-07-23T01:53:01.311360,12.80930280,.00077799,66.0410,60.5060,269.6212,90.3912,0,U,46984,999,26492,.9039408E-5,-.59E-6,0
CAS500-1,2021-022A,2026-07-23T06:24:00.047808,15.20137168,.00059162,97.3853,98.7808,143.7070,216.4567,0,U,47932,999,29624,.30651885E-3,.6564E-4,0
GAOFEN-12 02,2021-026A,2026-07-23T06:05:33.090144,14.80320646,.00061888,97.9941,202.2905,111.5049,248.6823,0,U,48079,999,28709,.52594218E-4,.348E-5,0
PLEIADES NEO 3,2021-034A,2026-07-23T05:57:05.342400,14.81670310,.00014409,97.8939,278.4960,100.5571,259.5804,0,U,48268,999,28299,.21196682E-3,.1616E-4,0
PLEIADES NEO 4,2021-073E,2026-07-23T06:45:39.661056,14.81673231,.00013776,97.8935,278.5251,98.6585,261.4784,0,U,49070,999,26671,.56114612E-4,.39E-5,0
LANDSAT 9,2021-088A,2026-07-23T04:18:37.156608,14.57099648,.00010624,98.2263,273.9181,94.8455,265.2865,0,U,49260,999,25624,.7074119E-4,.273E-5,0
CSG-2,2022-008A,2026-07-23T06:29:51.617184,14.82150422,.00015338,97.8905,27.3466,90.6431,269.4958,0,U,51444,999,24193,.70599659E-4,.51E-5,0
GAOFEN-12 03,2022-069A,2026-07-23T06:57:25.599168,14.80082856,.00022924,97.8228,91.2420,63.4554,296.6893,0,U,52912,999,21995,.39071212E-4,.245E-5,0
SWOT,2022-173A,2026-07-23T06:53:15.613728,14.00172808,.00002102,77.6119,346.5745,72.3660,287.7514,0,U,54754,999,18420,.6325142E-4,.91E-6,0
GAOFEN-12 04,2023-123A,2026-07-23T07:28:08.099904,14.79786714,.0003048,97.9094,121.7865,32.8982,327.2419,0,U,57654,999,15797,.12507206E-3,.89E-5,0
PARS 1,2024-039Q,2026-07-23T07:11:25.795968,15.46424018,.00086866,97.4847,186.3808,358.2583,1.8634,0,U,59065,999,13422,.24950802E-3,.12276E-3,0
RESURS-P 4,2024-061A,2026-07-23T07:29:57.681024,15.32315490,.00031924,97.2758,151.5894,78.2994,281.8606,0,U,59371,999,12929,.10392383E-3,.3166E-4,0
LEGION 1,2024-081A,2026-07-23T05:55:52.309344,15.16882171,.00079874,97.5002,281.7219,236.1302,123.9172,0,U,59625,999,12300,.18267901E-3,.3532E-4,0
LEGION 2,2024-081B,2026-07-23T05:04:47.935488,15.16862777,.00108937,97.5003,281.7834,203.1236,156.9508,0,U,59626,999,12300,.18190196E-3,.3517E-4,0
ALOS-4 (DAICHI-4),2024-123A,2026-07-23T06:35:13.825248,14.79476190,.00015679,97.9221,300.9323,98.2061,261.9328,0,U,60182,999,11121,.18292882E-3,.1315E-4,0
LEGION 3,2024-146A,2026-07-23T05:53:41.573184,15.15689150,.00073244,44.9999,197.2360,19.1941,340.9212,0,U,60452,999,10749,.1850136E-3,.3321E-4,0
LEGION 4,2024-146B,2026-07-23T07:27:58.377312,15.15725313,.00096085,45.0020,288.7522,163.4204,196.6990,0,U,60453,999,10635,.20932872E-3,.3798E-4,0
SENTINEL-2C,2024-157A,2026-07-23T04:28:38.090208,14.30817349,.00010443,98.5678,278.4566,108.8360,251.2937,0,U,60989,999,9813,.4410906E-4,.72E-6,0
IONOSFERA-M 1,2024-199A,2026-07-23T06:30:06.834816,14.22760275,.00020223,98.7124,77.0541,61.6628,298.4754,0,U,61735,999,13283,.30991127E-4,.26E-6,0
